OBJECT_NAME,OBJECT_ID,EPOCH,MEAN_MOTION,ECCENTRICITY,INCLINATION,RA_OF_ASC_NODE,ARG_OF_PERICENTER,MEAN_ANOMALY,EPHEMERIS_TYPE,CLASSIFICATION_TYPE,NORAD_CAT_ID,ELEMENT_SET_NO,REV_AT_EPOCH,BSTAR,MEAN_MOTION_DOT,MEAN_MOTION_DDOT
SATELIOT_2,2024-149BU,2026-05-18T11:14:31.233984,14.96236337,.00014821,97.6831,213.9683,115.7425,244.3949,0,U,60534,999,9552,.93934874E-4,.1003E-4,0
NIGHTJAR,2024-149BV,2026-05-18T22:52:31.655424,14.98827114,.00020852,97.6841,216.0674,131.7621,228.3780,0,U,60535,999,13849,.18437768E-3,.2165E-4,0
LEMUR-2-MARHISYAM,2024-149BW,2026-05-18T15:46:43.830336,15.10579029,.00020586,97.6875,221.4184,178.8496,181.2738,0,U,60536,999,9602,.39920743E-3,.6526E-4,0
SATELIOT_4,2024-149BX,2026-05-18T05:13:50.361600,14.96549403,.00035222,97.6741,213.2701,119.1990,240.9584,0,U,60537,999,9549,.15483295E-3,.1704E-4,0
PICO-02A021,2024-149BY,2026-05-18T16:12:38.281248,15.02946351,.00072925,97.6769,217.7704,111.5960,248.6043,0,U,60538,999,9530,.23425375E-3,.3088E-4,0
ICEYE-X43,2024-149BZ,2026-05-18T16:07:16.147488,14.99766789,.00052161,97.6764,216.0443,178.6769,181.4469,0,U,60539,999,9569,.16004076E-3,.1919E-4,0
HAWK-10A,2024-149CA,2026-05-18T11:32:54.888576,14.96408356,.00041557,97.6894,214.9041,150.9614,209.1840,0,U,60540,999,9554,.10695203E-3,.1155E-4,0
UMBRA-09,2024-149CB,2026-05-18T04:44:30.751296,15.17040965,.00012309,97.6966,224.9146,123.3552,236.7799,0,U,60541,999,9617,.42930968E-3,.8427E-4,0
QPS-SAR-8 (AMATERU-IV),2024-149CC,2026-05-18T04:29:59.209440,15.03790678,.00030667,97.6652,217.5970,188.1849,171.9327,0,U,60542,999,9576,.19441433E-3,.261E-4,0
ARCTIC WEATHER SATELLITE,2024-149CD,2026-05-18T22:29:25.165248,14.89801789,.00021431,97.6808,210.2370,164.2857,195.8428,0,U,60543,999,9494,.64022008E-4,.561E-5,0
CAPELLA-15 (ACADIA-5),2024-149CE,2026-05-18T16:30:58.758048,14.92481624,.00046539,97.6781,212.3250,159.6582,200.4824,0,U,60544,999,9545,.86500447E-4,.832E-5,0
HAWK-10B,2024-149CF,2026-05-18T11:32:42.190368,14.96409372,.00054808,97.6815,214.2890,175.8551,184.2717,0,U,60545,999,9554,.11152528E-3,.1207E-4,0
ICEYE-X39,2024-149CG,2026-05-18T10:54:26.330688,14.99705254,.000261,97.6808,215.8834,173.7592,186.3664,0,U,60546,999,9566,.10131316E-3,.1191E-4,0
UMBRA-10,2024-149CH,2026-05-18T15:48:43.747488,15.17057072,.00021202,97.6972,225.4084,102.6751,257.4719,0,U,60547,999,9625,.48658561E-3,.9566E-4,0
ICEYE-X33,2024-149CJ,2026-05-18T23:14:37.294944,15.00912600,.00002515,97.7190,218.2856,313.8701,46.2502,0,U,60548,999,9582,.26792992E-3,.3352E-4,0
ICEYE-X40,2024-149CK,2026-05-18T15:25:03.006624,14.97844239,.00051526,97.6822,215.6147,155.2797,204.8673,0,U,60549,999,9565,.96485549E-4,.1077E-4,0
SATELIOT_1,2024-149CL,2026-05-18T10:26:59.296992,14.97941555,.00071388,97.6763,214.8306,158.2199,201.9328,0,U,60550,999,9561,.15561408E-3,.1777E-4,0
BRO-14,2024-149CM,2026-05-18T13:37:08.648544,14.96117485,.00065085,97.6880,214.8773,182.0875,178.0320,0,U,60551,999,9556,.80082091E-4,.844E-5,0
SATELIOT_3,2024-149CN,2026-05-18T11:27:57.137760,14.97915367,.00055081,97.6817,215.6360,170.1045,190.0287,0,U,60552,999,9563,.11445714E-3,.1291E-4,0
BRO-15,2024-149CP,2026-05-18T03:32:57.491232,14.96070531,.00082009,97.6804,214.0953,177.4572,182.6693,0,U,60553,999,9551,.74528222E-4,.781E-5,0
UM5-RIBAT,2024-149CQ,2026-05-18T11:21:13.541760,15.00889201,.00034979,97.6658,216.6741,108.9540,251.2064,0,U,60554,999,9573,.13930728E-3,.1714E-4,0
UM5-EOSAT,2024-149CR,2026-05-18T04:20:59.167104,15.01294447,.00072278,97.6656,217.2912,202.9784,157.1118,0,U,60555,999,9571,.15661414E-3,.1955E-4,0
LASARSAT,2024-247Q,2026-05-18T12:00:04.590432,15.44392444,.00054149,44.9758,68.7838,160.1412,199.9689,0,U,62391,999,7872,.40959985E-3,.19038E-3,0
CROCUBE,2024-247T,2026-05-18T05:00:12.745440,15.45997443,.00050743,44.9731,68.2037,161.9433,198.1638,0,U,62394,999,7870,.43364177E-3,.21336E-3,0
TEVEL2-4,2025-052D,2026-05-18T23:01:44.097024,15.33496421,.00024004,97.3934,35.3230,159.0387,201.0955,0,U,63213,999,6563,.36563491E-3,.11765E-3,0
TEVEL2-5,2025-052E,2026-05-18T15:36:52.794720,15.33331220,.00023023,97.3934,34.9700,158.8541,201.2797,0,U,63214,999,6558,.34047251E-3,.10892E-3,0
TEVEL2-6,2025-052F,2026-05-18T11:11:40.506720,15.33288647,.00023975,97.3937,34.7706,161.5493,198.5837,0,U,63215,999,6555,.33767165E-3,.10787E-3,0
TEVEL2-1,2025-052H,2026-05-18T22:37:14.727648,15.32806742,.00019364,97.3913,34.9044,172.8226,187.3045,0,U,63217,999,6561,.35538396E-3,.11187E-3,0
TEVEL2-3,2025-052J,2026-05-18T03:42:54.644832,15.32837184,.00018165,97.3915,34.1361,174.9518,185.1743,0,U,63218,999,6549,.30289429E-3,.953E-4,0
TEVEL2-2,2025-052K,2026-05-18T22:37:54.031872,15.32812473,.00018545,97.3908,34.9069,174.5904,185.5359,0,U,63219,999,6561,.34918793E-3,.10992E-3,0
